{"type": "FeatureCollection", "features": [{"type": "Feature", "properties": {"name": "World Mask Outside Sovereign India"}, "geometry": {"type": "Polygon", "coordinates": [[[-180.0, -85.0], [180.0, -85.0], [180.0, 85.0], [-180.0, 85.0], [-180.0, -85.0]], [[77.51873419405028, 35.48565732389375], [77.6877402906629, 35.45310268510826], [77.814613, 35.522256], [77.91099100100007, 35.46209900100007], [77.93785, 35.55931700100007], [78.15719, 35.550947001000054], [78.243632, 35.725290001000076], [78.800242, 35.869825], [78.855859, 35.974243], [79.028424, 35.91423], [79.269576, 35.92742], [79.343439, 35.987873], [79.441727, 35.96832100100005], [79.488896, 35.849221], [79.572129, 35.89653], [79.704278, 35.639045], [79.845733, 35.574556], [79.99895, 35.602417], [79.96632, 35.55356500100004], [80.054915, 35.423414], [80.205413, 35.575150001000054], [80.411595, 35.477111], [80.285875, 35.35425400100007], [80.28263, 35.203886], [80.194828, 35.117987], [80.205051, 34.891236], [80.13685, 34.86893800100006], [80.074146, 34.70580600100004], [79.786547, 34.62735400100007], [79.794322, 34.480063], [79.508851, 34.453679], [79.607364, 34.238222], [79.490589, 34.1909], [79.403281, 34.00233], [78.995204, 34.036832], [78.887176, 33.97258700100008], [79.02827800100005, 33.75367600100003], [79.011855, 33.685212001000025], [79.090382, 33.637189], [78.907397, 33.62049], [78.94011100100005, 33.380019], [79.107388, 33.19975], [79.216971, 33.237886], [79.408298, 33.188838], [79.331457, 33.000793], [79.557271, 32.759179], [79.548375, 32.676552], [79.413331, 32.520026001000076], [79.276039, 32.556002], [79.131546, 32.480951], [79.100153, 32.370628], [78.968287, 32.33574], [78.779367, 32.47901600100005], [78.73958861600005, 32.69571814500006], [78.395036, 32.52987400100005], [78.472197, 32.44188100100007], [78.488363, 32.275637], [78.779628, 31.993593], [78.70229761900003, 31.80661318700004], [78.846641, 31.609164001000067], [78.720455, 31.508868001000053], [78.796741, 31.444074], [78.778182, 31.312339], [78.89950900100007, 31.289732], [79.099114, 31.454677], [79.427466, 31.022924001000035], [79.506865, 31.03239], [79.60313565400008, 30.93988246200007], [79.752312, 31.005804001000058], [79.866039, 30.971783], [79.930972, 30.880540001000043], [80.238638, 30.762319], [80.21834500100005, 30.58015], [80.60663, 30.471487], [80.801598, 30.323033001000056], [81.03086, 30.247088001000066], [80.99710948000006, 30.185989259000053], [80.90995089600005, 30.22332310300004], [80.74689273400008, 30.00604862800003], [80.60288113900003, 29.958508751000068], [80.49364811200007, 29.795958644000052], [80.36574144000008, 29.747885964000034], [80.40794146800005, 29.595506146000048], [80.24290889100007, 29.443909268000027], [80.31686947700007, 29.314911790000053], [80.29723532600008, 29.205230762000042], [80.24827184100008, 29.22115797200007], [80.27161651500006, 29.142237426000065], [80.14483035500007, 29.10428895600006], [80.07521678000006, 28.824454545000037], [80.51704941700007, 28.55183950000003], [80.50353420200008, 28.66493322200006], [80.56854935200005, 28.68804499600003], [81.03354709200005, 28.397493525000073], [81.21059096100004, 28.360782764000078], [81.31794719400006, 28.133663459000047], [81.44658543300005, 28.161052978000043], [81.47824606400007, 28.082768202000068], [81.88492524100008, 27.856965091000063], [82.07002449300006, 27.92367366800005], [82.44871346200006, 27.679329058000064], [82.70790201800008, 27.722829140000044], [82.73557302200004, 27.502320116000078], [83.18789854500005, 27.45438975600007], [83.31725852600005, 27.330045768000048], [83.40949370000004, 27.41264107300003], [83.38813376800005, 27.479801416000043], [83.61426213700008, 27.469482328000026], [83.86373317700009, 27.345854425000027], [83.84743525700009, 27.445351754000058], [84.02391130900008, 27.432584999000028], [84.15071261700007, 27.51692663400007], [84.29172543200008, 27.385073815000055], [84.62000823300008, 27.338758593000023], [84.68901201300008, 27.22064725300004], [84.64330299000005, 27.046176426000045], [84.96252606400003, 26.960515951000048], [85.05270291100004, 26.88924383600005], [85.02401837800005, 26.854442214000073], [85.19065592600003, 26.86997931700006], [85.21148764600008, 26.758273405000068], [85.33397401900004, 26.741596908000076], [85.62696668200005, 26.873467138000024], [85.72888434500004, 26.808067399000038], [85.73401043000007, 26.650828345000036], [85.85159826600005, 26.56802974200008], [86.02693705600007, 26.666811359000064], [86.21745313600007, 26.58856613100005], [86.33311697600004, 26.61910596900003], [86.73055498900004, 26.42264711200005], [87.07156674700008, 26.58583126800005], [87.09147501300004, 26.450375503000032], [87.34062448100008, 26.347374245000026], [87.46580776200005, 26.44040377500005], [87.60461826600005, 26.38093376000006], [87.88808114400007, 26.48688320800005], [88.00842245600006, 26.36126273800005], [88.09059519000004, 26.42600514700007], [88.18627205800004, 26.73849049100005], [88.13531510700005, 26.98506552400005], [87.98727764700004, 27.119423088000076], [88.06652060600004, 27.336025559000063], [88.04367652400003, 27.49591905500006], [88.19701746800007, 27.79104337600006], [88.117999, 27.91806800100005], [88.142459, 27.965277], [88.413592, 27.981077001000074], [88.63725597800004, 28.11823462700005], [88.836082, 28.015297], [88.888121, 27.856407001000036], [88.763302, 27.566424], [88.91467092000005, 27.29074896000003], [88.80238330800006, 27.24877281700003], [88.74555333400008, 27.141983681000056], [88.87162796200005, 27.108796158000075], [88.87525710200003, 26.943214074000025], [88.92126792700003, 26.99421736100004], [89.13363346900007, 26.80747167800007], [89.37893863900007, 26.862298718000034], [89.64975208900006, 26.776981613000032], [89.62608248500004, 26.723471226000072], [89.86094973300004, 26.702020985000047], [90.19390049200007, 26.773501085000078], [90.23044997500006, 26.859034574000077], [90.35550192800008, 26.90084841500004], [90.71723202200008, 26.769856059000062], [91.09679815400006, 26.821954678000054], [91.33644189000006, 26.780441344000053], [91.40756251600004, 26.840185776000055], [91.68973216000006, 26.806690139000068], [91.89239792300003, 26.92055232000007], [92.05643146600005, 26.847273689000076], [92.12134608000008, 26.960671981000075], [92.031192, 27.08003898100003], [92.03769288000007, 27.25848504000004], [92.12328396000004, 27.286608960000024], [92.01666420200007, 27.480615111000077], [91.65199400300008, 27.48330172900006], [91.56233196000005, 27.631447020000053], [91.64299604700005, 27.761111], [91.92439506600005, 27.716514477000032], [92.24365691800006, 27.88816751400003], [92.31908, 27.797418], [92.423851, 27.834877001000052], [92.455818, 27.79333500100006], [92.72957400100006, 27.978233001000035], [92.731518, 28.054471], [92.656442, 28.07999200100005], [92.67733, 28.150960001000044], [92.921611, 28.200690001000055], [93.42563159700006, 28.661985712000046], [93.712243, 28.664707001000068], [94.260509, 28.931677], [94.366375, 29.025931], [94.276863, 29.093863001000045], [94.293217, 29.15231200100004], [94.626468, 29.295798], [94.697159, 29.315394], [94.807259, 29.16486800100006], [95.021816, 29.127475], [94.994651, 29.173582001000057], [95.262616, 29.06834], [95.299347, 29.136469], [95.412736, 29.125924001000044], [95.433945, 29.192749], [95.503614, 29.12604200100003], [95.502074, 29.192157], [95.595676, 29.18801], [95.605629, 29.235996], [95.708829, 29.20400500100004], [95.812326, 29.34753], [95.877492, 29.314569], [96.053699, 29.382748], [96.30280976100005, 29.192280071000027], [96.18681774100008, 29.03730968900004], [96.33020086900007, 29.113145902000042], [96.44848715500007, 28.940254063000054], [96.52169447700004, 28.938938956000072], [96.63180951800007, 28.73370733300004], [96.64112553400008, 28.679902765000065], [96.54472497900008, 28.687396764000027], [96.40645336900008, 28.505854386000067], [96.49810578900008, 28.42899383200006], [96.49314397700005, 28.541797246000044], [96.71188336700004, 28.611443849000068], [96.92512187800008, 28.35261858100006], [97.12642688500006, 28.361892004000026], [97.36007440300006, 28.20480506800004], [97.31226575000005, 28.06206809500003], [97.39535870500004, 28.01174180000004], [97.36619998800006, 27.87723783900003], [97.24747647300006, 27.900083961000064], [96.88981200500007, 27.605873904000077], [96.90338067900007, 27.452783631000045], [97.16356689600008, 27.14218257300007], [97.13821021200005, 27.091486874000054], [96.86766541600008, 27.184722442000066], [96.88427232300006, 27.26018752500005], [96.70421722000003, 27.372258742000042], [96.52362776300004, 27.286293487000023], [96.22858935200009, 27.27880082200005], [96.02263678700007, 27.179952335000053], [95.94573464500007, 27.05138822300006], [95.80225633400005, 27.015073313000073], [95.72305902800008, 26.88147771000007], [95.52464955800008, 26.822662482000055], [95.43058529200005, 26.700023479000038], [95.14910719700003, 26.616014375000077], [95.06174856200005, 26.44951591800003], [95.13219898200003, 26.377741581000066], [95.11774097800009, 26.101248414000054], [95.18568340300004, 26.073299559000077], [95.01159345900004, 25.897953100000052], [95.04867076100004, 25.759796779000055], [94.89823108200005, 25.565570274000038], [94.63474079500008, 25.395189526000024], [94.57563994500003, 25.213862879000033], [94.74094483300007, 25.12657570400006], [94.71360261100006, 24.935002558000065], [94.39822657300004, 24.482340220000026], [94.15658726800007, 23.847907993000035], [93.93010819200003, 23.95003953300005], [93.80776267500005, 23.92676020300007], [93.75430185200008, 24.005539799000076], [93.50511773500006, 23.94249383500005], [93.41395397000008, 24.074131132000048], [93.32846535900006, 24.081022520000033], [93.43768739600006, 23.68680691800006], [93.35537106100008, 23.35260581600005], [93.38530227900009, 23.134666222000078], [93.29362002300007, 23.006661672000064], [93.12650077500007, 23.044013930000062], [93.16418540700005, 22.911484248000022], [93.09420983500007, 22.80620829700007], [93.10641475800008, 22.52688795100005], [93.18522542600004, 22.427690126000073], [93.20204103400005, 22.26413440600004], [93.14173988100003, 22.245657640000047], [93.15069134100008, 22.176314817000048], [93.03775719800007, 22.195408832000055], [93.00508783400005, 21.98715812000006], [92.95123519300006, 22.03001828300006], [92.90620677000004, 21.94142130800003], [92.86253176200006, 22.062930488000063], [92.69954201400003, 22.155041426000025], [92.67963540400007, 22.011523013000044], [92.60254291500007, 21.97812090900004], [92.51681699200003, 22.72225762000005], [92.44983611400005, 22.89387901200007], [92.37141616400004, 22.93624985300005], [92.34651589700007, 23.23646578900008], [92.40419903300005, 23.240833360000067], [92.27997442200007, 23.71938024800005], [92.21468217500006, 23.652100954000048], [92.14828412900005, 23.735563891000027], [92.04709199600006, 23.64578414600004], [91.95703390200003, 23.734121667000068], [91.97026695700004, 23.478289090000033], [91.76200484200007, 23.300122160000058], [91.83565923100008, 23.092363774000034], [91.61858158800004, 22.937311046000048], [91.41151586900008, 23.284141969000075], [91.41723718900005, 23.06465444500003], [91.34695723700008, 23.102435425000067], [91.32008820200008, 23.360244743000067], [91.15964018800008, 23.61058891400006], [91.20840395100004, 23.686518110000065], [91.15714019700005, 23.742230234000033], [91.21897527900006, 23.736579436000056], [91.25414120100004, 23.837166197000045], [91.23275406500005, 23.92722044800007], [91.30393450600008, 23.99829047000003], [91.37930140000003, 23.975371623000058], [91.37448333500004, 24.10754047200004], [91.58611486900008, 24.07272385300007], [91.66587, 24.233536], [91.76256404300005, 24.141801557000065], [91.74477299600005, 24.247415879000073], [91.85047801500008, 24.22375242100003], [91.90157744200008, 24.136646037000048], [91.91990751800006, 24.33708581600007], [92.16396380000003, 24.418627160000028], [92.15454270700008, 24.52321445800004], [92.22368369600008, 24.517395948000058], [92.29640370200008, 24.73665300500005], [92.23179514400005, 24.900259246000076], [92.49797999300006, 24.876450844000033], [92.42544509900006, 25.03030276100003], [92.06169323600005, 25.18784878100007], [91.63776497500004, 25.122705732000043], [91.61245606400007, 25.176299528000072], [91.47040640000006, 25.13393579500007], [91.26791197000006, 25.207313843000065], [90.44093790600004, 25.144644119000077], [89.96654892400005, 25.30377334700006], [89.83831201100008, 25.293235523000078], [89.88238180000008, 25.617284813000026], [89.81646806400005, 25.815496937000034], [89.88694158400006, 25.945342663000076], [89.82534059800008, 25.945455321000054], [89.87112341700004, 25.981070680000073], [89.77353074800004, 26.037732960000028], [89.79457682300006, 26.087991586000044], [89.68145173200008, 26.163720942000054], [89.67925021200006, 26.23830765400004], [89.590835, 26.157303], [89.65011799400008, 26.062830990000066], [89.57743572400005, 25.96909953200003], [89.42350537300007, 26.047571334000054], [89.35639535500007, 26.007682971000065], [89.15532718700007, 26.138323627000034], [89.08737670600004, 26.39772767200003], [88.95650194400008, 26.459670042000027], [88.90465913400004, 26.408623376000037], [88.99586848000007, 26.290087061000065], [89.06015634400006, 26.293121540000072], [89.05069676000005, 26.241748631000064], [88.89834418700008, 26.288767627000027], [88.84151397700003, 26.23086317800005], [88.79344918700008, 26.310058627000046], [88.66617335700005, 26.262827625000057], [88.74541889800008, 26.347919586000046], [88.43585721300008, 26.545146720000048], [88.39946918700008, 26.626634627000044], [88.33159218200007, 26.481949627000063], [88.48513701400003, 26.460404261000065], [88.52421833900007, 26.359436569000025], [88.45763647300004, 26.376638554000067], [88.35024697500006, 26.220340529000055], [88.17701260900003, 26.147980919000076], [88.18348048200005, 26.025152465000076], [88.08574236000004, 25.916805381000074], [88.10692301400007, 25.81512550900004], [88.26942121200005, 25.808334443000035], [88.45376355400003, 25.66496877000003], [88.44414700800007, 25.596975995000037], [88.53989558000006, 25.508401583000023], [88.69931608600007, 25.47132793800006], [88.81046735600006, 25.523295449000045], [88.84087768000006, 25.363885735000054], [89.00840368700005, 25.264385059000062], [88.92303214100008, 25.16511072800006], [88.84383755100004, 25.21390168100004], [88.80581283500004, 25.17061909800003], [88.44171511000008, 25.21049722300006], [88.39898723200008, 24.945242002000043], [88.33030518700008, 24.870182628000066], [88.25715851800004, 24.877962645000025], [88.22383926000003, 24.961778528000025], [88.13789451100007, 24.93630703100007], [88.17502237800005, 24.86021921400004], [88.00861437300006, 24.66781802500003], [88.33388901200004, 24.381516876000035], [88.73540308600008, 24.27907464200007], [88.74609443500003, 24.146976434000067], [88.69867986900005, 24.120655087000046], [88.76944418000005, 23.98206857400004], [88.66755506100003, 23.869615860000067], [88.57548031900006, 23.861822158000052], [88.55827060800004, 23.649230768000052], [88.74143439700003, 23.47974753400007], [88.80079316600006, 23.497288345000072], [88.71875613000003, 23.255148691000045], [88.99582104300003, 23.215008691000037], [88.84490326900004, 23.009240583000064], [88.96852226000004, 22.844968693000055], [88.91154045400003, 22.757252471000072], [88.96231336100004, 22.694466328000033], [88.93763167900005, 22.56014770300004], [88.99597818900008, 22.285745546000044], [89.09803221900006, 22.15508961300003], [89.03993624200007, 22.102491663000023], [89.06361696000005, 21.936538980000023], [89.01911163300008, 21.97611045900004], [88.98574829100005, 21.895555496000043], [89.09955596900005, 21.637332917000037], [88.91999816900005, 21.63036155800006], [88.85997009300007, 21.777055740000037], [88.84913635300006, 21.61619377100004], [88.81866455100004, 21.68391609300005], [88.72250366200007, 21.67788887100005], [88.70036315900006, 21.85666656500007], [88.77864074700005, 22.014055253000038], [88.75485992500006, 22.075332641000045], [88.68530273400006, 22.067388536000067], [88.71988677900003, 22.002805711000065], [88.63905334500004, 22.076194764000036], [88.55496978800005, 21.815361024000026], [88.51830291700009, 21.947916031000034], [88.45788574200003, 21.895805359000065], [88.45085907000004, 21.612054826000076], [88.42416381800007, 21.71875], [88.39661407500006, 21.591249466000022], [88.40208435000005, 21.71997261200005], [88.36833190900006, 21.682056427000077], [88.27494812000003, 21.733722687000068], [88.30958557100007, 21.579166413000053], [88.24663543700007, 21.561222076000035], [88.15621948200004, 21.955804826000076], [88.20866394000006, 22.149110794000023], [88.01955413800005, 22.222917557000073], [88.19033050700006, 22.104110717000026], [88.04827881000006, 22.014499664000027], [87.80416870100004, 21.69622230500005], [87.34049987800006, 21.577749253000036], [87.37666320800008, 21.55041694700003], [87.09247589100005, 21.53705596900005], [86.91210937500006, 21.33833313100007], [86.82707977300004, 21.136638641000047], [86.97455596900005, 20.82077789300007], [86.86761474600007, 20.775222778000057], [86.99580383300008, 20.769611358000077], [87.00336456300005, 20.712083816000074], [86.92578125000006, 20.710416793000036], [86.96416473400006, 20.694555282000067], [87.06958007800006, 20.720806121000066], [86.76914215100004, 20.502861024000026], [86.73163604700005, 20.534610748000034], [86.70791625900006, 20.409139633000052], [86.78788757300003, 20.37663841400007], [86.67377471900005, 20.294137955000053], [86.79875183100006, 20.346666336000055], [86.52085876500007, 20.18458366400006], [86.42253112800006, 20.002056121000066], [86.31500244100005, 19.98791694600004], [86.37163543700007, 19.95208358900004], [85.54000091600005, 19.69622230500005], [85.59208679200003, 19.70327758800005], [85.03794097900004, 19.391666412000063], [85.08208465600006, 19.374195100000065], [84.74580383300008, 19.117055893000042], [84.74583435100004, 19.07455635200006], [84.79289245600006, 19.11411094600004], [84.30625152500005, 18.533306122000056], [84.35955810500008, 18.554138184000067], [84.09955596900005, 18.350000383000065], [84.12916564900007, 18.309555053000054], [83.55625152600004, 18.025806428000067], [83.21494293200004, 17.590389252000023], [82.60166931100008, 17.283750535000024], [82.30619812100008, 17.038333893000072], [82.25077819800003, 16.87536048900006], [82.35955810500008, 16.824972153000033], [82.33330535900006, 16.988750458000027], [82.37124633800005, 16.909139633000052], [82.34191894500003, 16.736280441000076], [82.26891465900007, 16.706697727000062], [82.37001037600004, 16.724039078000033], [82.30885314900007, 16.597469330000024], [82.25823486400003, 16.68866265300005], [82.30039215000005, 16.584943773000077], [82.25872039800004, 16.56080627600005], [82.30455780000005, 16.55994415300006], [81.71910858100006, 16.308721542000058], [81.71708679200003, 16.36463928300003], [81.70996856700003, 16.30541610800003], [81.55327606200007, 16.372055055000033], [81.26747131300004, 16.292888641000047], [81.15208435000005, 15.971666336000055], [80.99708557300005, 15.822472572000038], [81.03125, 15.76080513100004], [80.93830871600005, 15.710389138000039], [80.89791870100004, 15.755000116000076], [80.92330932600004, 15.714583398000059], [80.83164215100004, 15.70127773400003], [80.80535888700007, 15.842472076000035], [80.67749786400003, 15.889555931000075], [80.52244567900004, 15.857083320000072], [80.26419067400008, 15.672082902000056], [80.04792022700008, 15.074138642000037], [80.07788848900003, 14.809139253000069], [80.18541717500005, 14.596666336000055], [80.13996887200005, 14.565388681000059], [80.19580841100003, 14.577944755000033], [80.10372161900005, 14.252499581000052], [80.12622070300006, 14.065833092000048], [80.25711059600008, 13.781639100000064], [80.23622131300004, 13.644139291000045], [80.34622192300003, 13.283305169000073], [80.15625, 12.462444305000076], [79.87288665800008, 12.039972305000049], [79.75875091500006, 11.671610832000056], [79.83208465600006, 11.360777856000027], [79.76125335700004, 11.379166603000044], [79.83875274600007, 11.352499961000035], [79.85705566400003, 11.195805550000046], [79.82702636700003, 10.817472459000044], [79.88122558600008, 10.310832977000075], [79.79333496100008, 10.272889139000029], [79.63913726800007, 10.365416528000026], [79.29413604700005, 10.26038932800003], [79.23124694800003, 10.146666528000026], [79.26791381800007, 10.039972305000049], [78.99539184600008, 9.711667061000071], [78.90039062500006, 9.486666679000052], [78.99955749500003, 9.347472191000065], [78.95919799800004, 9.340416908000066], [79.18914031900005, 9.280388833000075], [78.86086273200004, 9.251277925000068], [78.26583099400005, 9.017916681000031], [78.12538909900007, 8.761666298000023], [78.20122528100006, 8.784999847000051], [78.10955810600007, 8.639166832000058], [78.13122558600008, 8.494999887000063], [78.06999969400005, 8.373722076000035], [77.55000305200008, 8.073694230000058], [77.31666564900007, 8.12288856500004], [77.01247406000005, 8.350388527000064], [76.54619598400006, 8.899999618000038], [76.66625213600008, 8.99416637400003], [76.53871917900005, 8.934139253000069], [76.46035766600005, 9.135805130000051], [76.49580383300008, 9.167888641000047], [76.42830658000008, 9.249555589000067], [76.45791626000005, 9.141666412000063], [76.35708618100006, 9.364972114000068], [76.23622131300004, 9.95994472600006], [76.28800201400009, 9.946611404000066], [76.27041626000005, 10.032500267000046], [76.24083709700005, 9.972916604000034], [76.17208099400005, 10.139944076000063], [76.20830535900006, 10.195388794000053], [76.15625, 10.184166909000055], [76.06536102300004, 10.54330539800003], [75.91955566400003, 10.778333665000048], [75.95788574300008, 10.816638946000069], [75.91208648700007, 10.784944534000033], [75.82622528100006, 11.11997223000003], [75.86955261300005, 11.124111175000053], [75.80538940500008, 11.154944421000039], [75.75791931200007, 11.359972], [75.62041473400006, 11.475832939000043], [75.54291534400005, 11.710778236000067], [75.35541534400005, 11.861666679000052], [75.31455230800003, 11.970000267000046], [75.20124816900005, 12.004111291000072], [74.82538604700005, 12.83833313100007], [74.86955261200006, 12.833305359000065], [74.69541931100008, 13.343277931000046], [74.66625213600008, 13.630861284000048], [74.72205352800006, 13.63833332200005], [74.65039062500006, 13.664138795000042], [74.42710876400008, 14.277500153000062], [74.51708221400008, 14.24163913700005], [74.42202758800005, 14.285805703000051], [74.38288879400005, 14.539111137000077], [74.31080627400007, 14.517916680000042], [74.29205322300004, 14.594139099000074], [74.34958648700007, 14.60413932800003], [74.26791381800007, 14.62416648900006], [74.28372192400008, 14.712499618000038], [74.11750030600007, 14.771222116000047], [74.16471862800006, 14.85855579500003], [74.11538696400004, 14.840806009000062], [74.05127716100003, 14.984167100000036], [73.91291809100005, 15.083277702000032], [73.95627594000007, 15.15747261000007], [73.89785766600005, 15.328305244000035], [73.78455352800006, 15.408305168000027], [73.88522339000008, 15.427555084000062], [73.78874969400005, 15.45913887000006], [73.82608032200005, 15.503833772000064], [73.76999664400006, 15.489555360000054], [73.73377990700004, 15.588305475000027], [73.78958129800003, 15.652444841000033], [73.73371887200005, 15.614944458000025], [73.62919616700003, 15.871222497000076], [73.45705413800005, 16.05330467300007], [73.38539123600003, 16.335805894000032], [73.42788696300005, 16.371639252000023], [73.36708068900003, 16.379167557000073], [73.46875, 16.413305282000067], [73.36997223000003, 16.39455604500006], [73.31708526600005, 16.51080513000005], [73.33669281000005, 16.560417176000044], [73.36244201600005, 16.477945329000022], [73.44374847400007, 16.499971389000052], [73.31874847400007, 16.598333359000037], [73.40211486800007, 16.615804672000024], [73.33286285400004, 16.619138717000055], [73.30708313000008, 16.728305817000034], [73.34625244100005, 16.828306198000064], [73.29702758800005, 16.813333511000053], [73.28291320800008, 16.95247268600002], [73.33041381800007, 16.96750068800003], [73.25705719000007, 17.047527313000046], [73.28749847400007, 16.99875068600005], [73.32541656500007, 17.040000917000043], [73.19122314400005, 17.29663848900003], [73.29955291800007, 17.29163932800003], [73.17205810600007, 17.39916610800003], [73.21372222900004, 17.43327713000002], [73.13955688500005, 17.557500840000046], [73.21658325300007, 17.588806152000075], [73.13794708200004, 17.610000610000043], [73.08872222900004, 17.83413887200004], [73.12955474800003, 17.834194183000022], [73.05371856700003, 17.90163803200005], [73.09208679200003, 17.940000535000024], [73.03125, 17.949167251000063], [73.09094238200004, 17.990360261000035], [73.01958465600006, 17.990804672000024], [72.98958587700008, 18.191667557000073], [72.93291473400006, 18.217472076000035], [72.96666717500005, 18.27874946700007], [73.10208129900008, 18.142444612000077], [73.04455566400003, 18.29583358800005], [73.08621978800005, 18.31916618500003], [73.02997589100005, 18.262887955000053], [72.92121887200005, 18.34749984700005], [72.90705871600005, 18.539943695000034], [73.00624847400007, 18.466667175000055], [72.85708618100006, 18.69416618500003], [72.86791992200006, 18.800806046000048], [72.93916320800008, 18.825387954000064], [73.01625061100003, 18.71500015400005], [72.98916626000005, 18.865417480000076], [72.90875244100005, 18.897443773000077], [73.06705474800003, 19.020805359000065], [73.00122070300006, 19.00413894600007], [72.98580932600004, 19.18952751100005], [72.95791626000005, 19.037445068000068], [72.86577606200007, 19.00622177200006], [72.80622100800008, 18.893333435000045], [72.83125305200008, 19.179971696000052], [72.77958679200003, 19.154111863000026], [72.84122467000003, 19.254138947000058], [72.78327941900005, 19.192054748000032], [72.78624725400005, 19.304971695000063], [72.91210937500006, 19.288333893000072], [72.77708435100004, 19.348333358000048], [72.74455261300005, 19.45994377100004], [72.88877868700007, 19.52413940400004], [72.73039245600006, 19.529167177000033], [72.65544128400006, 19.833305360000054], [72.66577911400003, 19.933721542000058], [72.74627685600007, 19.941638947000058], [72.70788574200003, 20.071666717000028], [72.78289032000004, 20.210832596000046], [72.75375366200007, 20.290000917000043], [72.90044403000007, 20.53000068700004], [72.84502410900006, 20.743749618000038], [72.93041992200006, 20.75913810800006], [72.82624816900005, 20.794137954000064], [72.78289032000004, 20.91916656500007], [72.84958648700007, 20.971639633000052], [72.75833129900008, 20.928777695000065], [72.73371887200005, 20.998277665000046], [72.72830200300007, 21.053722381000057], [72.84872436500007, 21.03247261000007], [72.79788971100004, 21.049999238000055], [72.82788848900003, 21.091667175000055], [72.70703125000006, 21.087499620000074], [72.78869628900003, 21.18000030500008], [72.67747497500005, 21.15791702300004], [72.63999938900008, 21.080389023000066], [72.63786315900006, 21.206611633000023], [72.74166870100004, 21.19788932800003], [72.59786224400005, 21.29830551200007], [72.68624877900004, 21.35499954200003], [72.64619445800008, 21.38666725300004], [72.69911193900003, 21.46291732800006], [72.76244354300007, 21.44788932800003], [72.64577484200004, 21.44622230600004], [72.67958068800004, 21.500833513000032], [72.83416748100007, 21.666276931000027], [72.92788696300005, 21.675777435000043], [72.53666687000003, 21.66286087000003], [72.61872100800008, 21.90586090100004], [72.74958038300008, 21.973278047000065], [72.53747558600008, 21.89622306800004], [72.50788879500004, 21.975805284000046], [72.58583068800004, 22.204555511000024], [72.76080322200005, 22.17374992300006], [72.81874847500006, 22.256639480000047], [72.91205596900005, 22.264972687000068], [72.74830627500006, 22.231250764000038], [72.53500366200007, 22.305389405000028], [72.43080902100007, 22.204526901000065], [72.37999725300006, 22.33705520700005], [72.32622528100006, 22.308305741000027], [72.29872131400003, 22.103332521000027], [72.18202972400007, 22.02249908400006], [72.24705505400004, 21.924165725000023], [72.16330719000007, 21.959554672000024], [72.24952697800006, 21.910804750000068], [72.24955749500003, 21.809972764000065], [72.21499633800005, 21.857084274000044], [72.16619110100004, 21.809999466000022], [72.30625152600004, 21.62666702300004], [72.23627471900005, 21.454111099000045], [72.08916473400006, 21.31544494800005], [72.11127471900005, 21.199111938000044], [71.51416778600003, 20.95541572600007], [71.44249725300006, 20.867916107000042], [70.82205200200008, 20.69083404500003], [70.15577697800006, 21.054555893000042], [69.39577484100005, 21.85455513100004], [69.25958251900005, 21.914167406000047], [68.93538665800008, 22.306694030000074], [69.06833648600008, 22.478721620000044], [69.03541564900007, 22.389972687000068], [69.19208526600005, 22.418333053000026], [69.15708160400004, 22.309999466000022], [69.22747039800004, 22.25622177100007], [69.48000335700004, 22.33208275000004], [69.51000213600008, 22.425388337000072], [69.57408142100007, 22.322082521000027], [69.62163543700007, 22.36538887000006], [69.66789245600006, 22.323333740000066], [69.72836303700007, 22.47455597000004], [69.80833435000005, 22.397888183000077], [69.83164215100004, 22.449583055000062], [69.92080688600004, 22.437915803000067], [69.98580932600004, 22.54455566400003], [70.17416382000005, 22.542028427000048], [70.44750213600008, 22.970388412000034], [70.28747558600003, 22.944610596000075], [70.21913909900007, 23.05541610800003], [70.22413635200007, 22.95288848900003], [70.13166809100005, 22.995861055000034], [70.10002899200003, 22.907861711000066], [69.89833068800004, 22.871276856000065], [69.88497161900005, 22.91286087000003], [69.72875213600008, 22.819139481000036], [69.71083068800004, 22.737888337000072], [69.45163726800007, 22.77541732800006], [69.35202789300007, 22.81836128200007], [69.36166381800007, 22.881195068000068], [69.34999847400007, 22.817888261000064], [69.22497558600003, 22.87622261100006], [69.19580841000004, 22.836221695000063], [68.63158416700003, 23.16866684100006], [68.71741485700005, 23.12536048800007], [68.57947540300006, 23.227443695000034], [68.67947387700008, 23.301639557000044], [68.57575225800008, 23.347026825000057], [68.50910949700005, 23.493749618000038], [68.44872283900008, 23.479999543000076], [68.46913909900007, 23.551250459000073], [68.42539215100004, 23.509166718000074], [68.54783630400004, 23.714166641000077], [68.81080627500006, 23.87880516000007], [68.65908050600007, 23.85874939000007], [68.51408386200006, 23.745445252000025], [68.43413543800006, 23.736278535000054], [68.42678070100004, 23.819360734000043], [68.34997558600003, 23.58205604500006], [68.26580810500008, 23.556278229000043], [68.27163696300005, 23.62461090200003], [68.25413513200004, 23.567916870000033], [68.17202758800005, 23.616666793000036], [68.34955596900005, 23.730028152000045], [68.26247406000005, 23.736305237000067], [68.24578094500004, 23.671222688000057], [68.18958282500006, 23.72669410700007], [68.20705413800005, 23.834194183000022], [68.35697642600007, 23.974152712000034], [68.75299125300006, 23.971423774000073], [68.80801, 24.313490001000048], [68.86602251800008, 24.21220308900007], [68.94538, 24.302530001000036], [69.00342, 24.22306000100008], [69.09482, 24.27444], [69.19416, 24.23639], [69.59429, 24.29238], [69.73152, 24.17104], [70.02502, 24.171030001000076], [70.10992, 24.295000001000062], [70.56134, 24.42085], [70.6025, 24.408150001000024], [70.57134000100007, 24.25175], [70.714, 24.215710001000048], [70.90668, 24.2594], [70.87394, 24.29485], [70.94692, 24.34852], [71.11965, 24.40245], [70.9985, 24.44437], [70.98629, 24.59557], [71.09618, 24.68863], [70.93770561400004, 24.938612225000043], [70.88849300900006, 25.14810380800003], [70.66482306000006, 25.39689362200005], [70.66014987200003, 25.702020599000036], [70.26863999100004, 25.713643215000047], [70.09980594500007, 25.93824066800005], [70.17428386300003, 26.551333114000045], [69.82316695000003, 26.588955524000028], [69.51030040000006, 26.74353908300003], [69.51337713100008, 27.009928626000033], [69.58682895100003, 27.183251056000074], [70.02592691800004, 27.562868552000054], [70.13255064900005, 27.80598063800005], [70.37223289400004, 28.011824310000065], [70.58949778400006, 28.01046367200007], [70.73984542800008, 27.741907025000046], [70.87200318500004, 27.705547913000032], [71.20556892700006, 27.83533706000003], [71.66648581400005, 27.877807285000074], [71.89834746500003, 27.96123761700005], [71.92733255200005, 28.12170257100007], [72.20663153800007, 28.394757076000076], [72.39025312500007, 28.76971442000007], [72.94583110500008, 29.027797622000037], [73.28225472000008, 29.572061120000058], [73.39699, 29.945934], [73.80662902500006, 30.06796941500005], [73.97268913500005, 30.198253024000053], [73.87983357100006, 30.359761623000054], [73.97381689100007, 30.44395213400003], [73.93465655900008, 30.490159893000055], [74.07234214900006, 30.52288808000003], [74.41647108500007, 30.940328785000077], [74.69609569000005, 31.07395723600007], [74.68915468700004, 31.127951078000024], [74.57129163200005, 31.081357119000074], [74.51040744500006, 31.13196294200003], [74.55173742900007, 31.364399503000072], [74.65467123300004, 31.42590946300004], [74.48662495500008, 31.715053800000078], [74.60739286500007, 31.89007904500005], [74.81900637600006, 31.95870777400006], [74.87942673600008, 32.053751256000055], [75.24026930500008, 32.09102958600005], [75.37231677900007, 32.22577782700006], [75.32200136400007, 32.34369661200003], [75.13291174600005, 32.40883078200005], [75.10169467500003, 32.477465186000074], [74.68141605700004, 32.492754270000034], [74.63848442200003, 32.614611307000075], [74.69509979800006, 32.660571196000035], [74.65447214300008, 32.72909944200006], [74.70525128500003, 32.84195468900003], [74.63763067800005, 32.75147021600003], [74.37175134000006, 32.76958132800007], [73.925811, 33.034085], [73.816152, 33.010344], [73.634141, 33.093437], [73.670317, 33.21101], [73.57597786500008, 33.37740119000006], [73.633575, 33.526423], [73.571962, 33.63043], [73.594573, 33.891579], [73.50141338700007, 34.01800203400006], [73.488302, 34.279344], [73.39842630500004, 34.37826391800007], [73.453256, 34.569321], [73.656748, 34.562538], [73.727969, 34.764334], [74.045079, 34.890386500000034], [74.13194850000008, 35.11928750000004], [73.74990850000006, 35.220888], [73.69286950000003, 35.349226], [73.79447, 35.44904450000007], [73.78555682400008, 35.52448867700008], [73.40529850000007, 35.529256], [73.33102950000006, 35.662941], [73.126046, 35.721168], [73.200315, 35.78712], [73.17833150000007, 35.860201], [72.56850036300006, 35.851801117000036], [72.50990580100006, 35.902388047000045], [72.56813340600007, 36.01230667200008], [72.52119633700005, 36.07885205200006], [72.549121, 36.232737], [72.96740791600007, 36.476936813000066], [73.07495089000008, 36.609433538000076], [73.06188028400004, 36.697367953000025], [73.37440469400008, 36.757973083000024], [73.86101455100004, 36.72470260000006], [73.66987, 36.922372], [74.040734, 36.834316], [74.424037, 37.006866], [74.562769, 36.971289], [74.573441, 37.038886], [74.689049, 37.095811], [74.734752, 37.037511], [74.840672, 37.065585], [74.902106, 36.940578], [75.145711, 37.034335], [75.417902, 36.959121], [75.460103, 36.729847], [75.539701, 36.780087], [75.735626, 36.753075], [75.941074, 36.606355], [76.02785159262507, 36.43963345932904], [76.71875858600009, 36.15991282200008], [76.83906132000016, 35.85951772100006], [77.08958866400013, 35.74019683900005], [77.3485909430002, 35.719784648000115], [77.4688936770001, 35.65188181600007], [77.51873419405028, 35.48565732389375]]]}}]}